STARLINK-2501_new
1 18330C 21036BG  21326.16336240  .00001604  00000-0  10746-3 0  3265
2 18330  53.0556 303.0092 0002087  54.3442 246.8825 15.06394761    18
STARLINK-2501_old
1 28330C 21036BG  21325.13663399 -.00000515  00000-0 -34497-4 0  3250
2 28330  53.0558 307.6180 0002048  52.3677  77.8263 15.06386831    10
